{"type": "FeatureCollection", "features": [ {"type": "Feature", "properties": {"norad_id": 29999, "name": "FENGYUN 1C DEB", "group": "fengyun-1c-debris", "lat": 56.92374541024106, "lon": 174.75248758232306, "alt_km": 696.1797170978625, "timestamp": "2025-12-23T09:49:07.356142+00:00", "meta": {"OBJECT_NAME": "FENGYUN 1C DEB", "OBJECT_ID": "1999-025LZ", "EPOCH": "2025-12-22T17:08:44.280960", "MEAN_MOTION": 14.20148983, "ECCENTRICITY": 0.01897748, "INCLINATION": 98.5772, "RA_OF_ASC_NODE": 340.6797, "ARG_OF_PERICENTER": 97.8191, "MEAN_ANOMALY": 73.5132, "EPHEMERIS_TYPE": 0, "CLASSIFICATION_TYPE": "U", "NORAD_CAT_ID": 29999, "ELEMENT_SET_NO": 999, "REV_AT_EPOCH": 97865, "BSTAR": 0.00027024162, "MEAN_MOTION_DOT": 6.48e-06, "MEAN_MOTION_DDOT": 0}, "tle": {"line1": "1 29999U 99025LZ  25356.71440140  .00000648  00000+0  27024-3 0  9990", "line2": "2 29999  98.5772 340.6797 0189774  97.8191  73.5132 14.20148983978651"}}, "geometry": {"type": "Point", "coordinates": [174.75248758232306, 56.92374541024106]}}, {"type": "Feature", "properties": {"norad_id": 30001, "name": "FENGYUN 1C DEB", "group": "fengyun-1c-debris", "lat": 58.169692403185685, "lon": 58.198467068944694, "alt_km": 731.2331059602748, "timestamp": "2025-12-23T09:49:07.356153+00:00", "meta": {"OBJECT_NAME": "FENGYUN 1C DEB", "OBJECT_ID": "1999-025MA", "EPOCH": "2025-12-22T17:26:22.297344", "MEAN_MOTION": 14.38723217, "ECCENTRICITY": 0.00364381, "INCLINATION": 98.959, "RA_OF_ASC_NODE": 72.2084, "ARG_OF_PERICENTER": 68.857, "MEAN_ANOMALY": 57.8145, "EPHEMERIS_TYPE": 0, "CLASSIFICATION_TYPE": "U", "NORAD_CAT_ID": 30001, "ELEMENT_SET_NO": 999, "REV_AT_EPOCH": 97575, "BSTAR": 0.0025375783, "MEAN_MOTION_DOT": 7.809e-05, "MEAN_MOTION_DDOT": 0}, "tle": {"line1": "1 30001U 99025MA  25356.72664696  .00007809  00000+0  25376-2 0  9994", "line2": "2 30001  98.9590  72.2084 0036438  68.8570  57.8145 14.38723217975758"}}, "geometry": {"type": "Point", "coordinates": [58.198467068944694, 58.169692403185685]}}, {"type": "Feature", "properties": {"norad_id": 30003, "name": "FENGYUN 1C DEB", "group": "fengyun-1c-debris", "lat": -8.345342433576132, "lon": -26.140176724051713, "alt_km": 964.676339950016, "timestamp": "2025-12-23T09:49:07.356163+00:00", "meta": {"OBJECT_NAME": "FENGYUN 1C DEB", "OBJECT_ID": "1999-025MC", "EPOCH": "2025-12-22T20:19:57.106272", "MEAN_MOTION": 13.85632839, "ECCENTRICITY": 0.01436253, "INCLINATION": 99.5782, "RA_OF_ASC_NODE": 331.8664, "ARG_OF_PERICENTER": 93.1632, "MEAN_ANOMALY": 338.5656, "EPHEMERIS_TYPE": 0, "CLASSIFICATION_TYPE": "U", "NORAD_CAT_ID": 30003, "ELEMENT_SET_NO": 999, "REV_AT_EPOCH": 95628, "BSTAR": 0.0003357111, "MEAN_MOTION_DOT": 3.7e-06, "MEAN_MOTION_DDOT": 0}, "tle": {"line1": "1 30003U 99025MC  25356.84718873  .00000370  00000+0  33571-3 0  9999", "line2": "2 30003  99.5782 331.8664 0143625  93.1632 338.5656 13.85632839956288"}}, "geometry": {"type": "Point", "coordinates": [-26.140176724051713, -8.345342433576132]}}, {"type": "Feature", "properties": {"norad_id": 30004, "name": "FENGYUN 1C DEB", "group": "fengyun-1c-debris", "lat": -43.915934772067594, "lon": -172.07369346355307, "alt_km": 814.1117934337499, "timestamp": "2025-12-23T09:49:07.356174+00:00", "meta": {"OBJECT_NAME": "FENGYUN 1C DEB", "OBJECT_ID": "1999-025MD", "EPOCH": "2025-12-22T12:19:23.697408", "MEAN_MOTION": 14.1708646, "ECCENTRICITY": 0.00384701, "INCLINATION": 99.2237, "RA_OF_ASC_NODE": 177.9965, "ARG_OF_PERICENTER": 315.1479, "MEAN_ANOMALY": 113.661, "EPHEMERIS_TYPE": 0, "CLASSIFICATION_TYPE": "U", "NORAD_CAT_ID": 30004, "ELEMENT_SET_NO": 999, "REV_AT_EPOCH": 97445, "BSTAR": 0.00064796252, "MEAN_MOTION_DOT": 1.266e-05, "MEAN_MOTION_DDOT": 0}, "tle": {"line1": "1 30004U 99025MD  25356.51346872  .00001266  00000+0  64796-3 0  9998", "line2": "2 30004  99.2237 177.9965 0038470 315.1479 113.6610 14.17086460974451"}}, "geometry": {"type": "Point", "coordinates": [-172.07369346355307, -43.915934772067594]}}, {"type": "Feature", "properties": {"norad_id": 30005, "name": "FENGYUN 1C DEB", "group": "fengyun-1c-debris", "lat": -4.0560854244368185, "lon": 138.04970855620797, "alt_km": 1179.8854152478007, "timestamp": "2025-12-23T09:49:07.356184+00:00", "meta": {"OBJECT_NAME": "FENGYUN 1C DEB", "OBJECT_ID": "1999-025ME", "EPOCH": "2025-12-22T20:31:01.254432", "MEAN_MOTION": 13.52242976, "ECCENTRICITY": 0.03472655, "INCLINATION": 99.303, "RA_OF_ASC_NODE": 318.1949, "ARG_OF_PERICENTER": 67.8082, "MEAN_ANOMALY": 295.9515, "EPHEMERIS_TYPE": 0, "CLASSIFICATION_TYPE": "U", "NORAD_CAT_ID": 30005, "ELEMENT_SET_NO": 999, "REV_AT_EPOCH": 93083, "BSTAR": 0.001396715, "MEAN_MOTION_DOT": 1.307e-05, "MEAN_MOTION_DDOT": 0}, "tle": {"line1": "1 30005U 99025ME  25356.85487563  .00001307  00000+0  13967-2 0  9998", "line2": "2 30005  99.3030 318.1949 0347265  67.8082 295.9515 13.52242976930837"}}, "geometry": {"type": "Point", "coordinates": [138.04970855620797, -4.0560854244368185]}}, {"type": "Feature", "properties": {"norad_id": 30007, "name": "FENGYUN 1C DEB", "group": "fengyun-1c-debris", "lat": -25.987481340413076, "lon": -96.22924952506472, "alt_km": 766.3086698949801, "timestamp": "2025-12-23T09:49:07.356195+00:00", "meta": {"OBJECT_NAME": "FENGYUN 1C DEB", "OBJECT_ID": "1999-025MG", "EPOCH": "2025-12-22T17:11:22.831008", "MEAN_MOTION": 14.25493662, "ECCENTRICITY": 0.00653768, "INCLINATION": 99.1786, "RA_OF_ASC_NODE": 258.5255, "ARG_OF_PERICENTER": 346.8992, "MEAN_ANOMALY": 33.2959, "EPHEMERIS_TYPE": 0, "CLASSIFICATION_TYPE": "U", "NORAD_CAT_ID": 30007, "ELEMENT_SET_NO": 999, "REV_AT_EPOCH": 97498, "BSTAR": 0.0016985193, "MEAN_MOTION_DOT": 4.058e-05, "MEAN_MOTION_DDOT": 0}, "tle": {"line1": "1 30007U 99025MG  25356.71623647  .00004058  00000+0  16985-2 0  9999", "line2": "2 30007  99.1786 258.5255 0065376 346.8992  33.2959 14.25493662974982"}}, "geometry": {"type": "Point", "coordinates": [-96.22924952506472, -25.987481340413076]}}, {"type": "Feature", "properties": {"norad_id": 30008, "name": "FENGYUN 1C DEB", "group": "fengyun-1c-debris", "lat": 0.7584082139511736, "lon": -44.84217333965197, "alt_km": 700.8475131757114, "timestamp": "2025-12-23T09:49:07.356204+00:00", "meta": {"OBJECT_NAME": "FENGYUN 1C DEB", "OBJECT_ID": "1999-025MH", "EPOCH": "2025-12-22T20:57:53.915616", "MEAN_MOTION": 14.66487329, "ECCENTRICITY": 0.00394192, "INCLINATION": 99.3701, "RA_OF_ASC_NODE": 314.6722, "ARG_OF_PERICENTER": 160.3494, "MEAN_ANOMALY": 254.8525, "EPHEMERIS_TYPE": 0, "CLASSIFICATION_TYPE": "U", "NORAD_CAT_ID": 30008, "ELEMENT_SET_NO": 999, "REV_AT_EPOCH": 99208, "BSTAR": 0.0019467598, "MEAN_MOTION_DOT": 0.00010863, "MEAN_MOTION_DDOT": 0}, "tle": {"line1": "1 30008U 99025MH  25356.87354069  .00010863  00000+0  19468-2 0  9996", "line2": "2 30008  99.3701 314.6722 0039419 160.3494 254.8525 14.66487329992089"}}, "geometry": {"type": "Point", "coordinates": [-44.84217333965197, 0.7584082139511736]}}, {"type": "Feature", "properties": {"norad_id": 30009, "name": "FENGYUN 1C DEB", "group": "fengyun-1c-debris", "lat": -38.718473794837536, "lon": -135.05027753647363, "alt_km": 879.4453535712382, "timestamp": "2025-12-23T09:49:07.356215+00:00", "meta": {"OBJECT_NAME": "FENGYUN 1C DEB", "OBJECT_ID": "1999-025MJ", "EPOCH": "2025-12-22T15:40:46.428960", "MEAN_MOTION": 14.04882998, "ECCENTRICITY": 0.00643079, "INCLINATION": 99.0143, "RA_OF_ASC_NODE": 51.5103, "ARG_OF_PERICENTER": 306.9235, "MEAN_ANOMALY": 52.6052, "EPHEMERIS_TYPE": 0, "CLASSIFICATION_TYPE": "U", "NORAD_CAT_ID": 30009, "ELEMENT_SET_NO": 999, "REV_AT_EPOCH": 96622, "BSTAR": 0.00089420663, "MEAN_MOTION_DOT": 1.418e-05, "MEAN_MOTION_DDOT": 0}, "tle": {"line1": "1 30009U 99025MJ  25356.65331515  .00001418  00000+0  89421-3 0  9997", "line2": "2 30009  99.0143  51.5103 0064307 306.9235  52.6052 14.04882998966221"}}, "geometry": {"type": "Point", "coordinates": [-135.05027753647363, -38.718473794837536]}}, {"type": "Feature", "properties": {"norad_id": 30010, "name": "FENGYUN 1C DEB", "group": "fengyun-1c-debris", "lat": 74.65830029916425, "lon": 45.52832463553676, "alt_km": 788.4798319822567, "timestamp": "2025-12-23T09:49:07.356225+00:00", "meta": {"OBJECT_NAME": "FENGYUN 1C DEB", "OBJECT_ID": "1999-025MK", "EPOCH": "2025-12-22T13:12:34.165152", "MEAN_MOTION": 14.24993596, "ECCENTRICITY": 0.00731084, "INCLINATION": 99.0695, "RA_OF_ASC_NODE": 189.0352, "ARG_OF_PERICENTER": 181.081, "MEAN_ANOMALY": 199.3961, "EPHEMERIS_TYPE": 0, "CLASSIFICATION_TYPE": "U", "NORAD_CAT_ID": 30010, "ELEMENT_SET_NO": 999, "REV_AT_EPOCH": 98400, "BSTAR": 0.00011520395, "MEAN_MOTION_DOT": 2.3e-06, "MEAN_MOTION_DDOT": 0}, "tle": {"line1": "1 30010U 99025MK  25356.55039543  .00000230  00000+0  11520-3 0  9990", "line2": "2 30010  99.0695 189.0352 0073108 181.0810 199.3961 14.24993596984001"}}, "geometry": {"type": "Point", "coordinates": [45.52832463553676, 74.65830029916425]}}, {"type": "Feature", "properties": {"norad_id": 30012, "name": "FENGYUN 1C DEB", "group": "fengyun-1c-debris", "lat": -9.182283209577026, "lon": 52.29107519529128, "alt_km": 1006.4902183600279, "timestamp": "2025-12-23T09:49:07.356235+00:00", "meta": {"OBJECT_NAME": "FENGYUN 1C DEB", "OBJECT_ID": "1999-025MM", "EPOCH": "2025-12-22T15:25:21.368352", "MEAN_MOTION": 13.8577224, "ECCENTRICITY": 0.01372284, "INCLINATION": 99.4628, "RA_OF_ASC_NODE": 49.9723, "ARG_OF_PERICENTER": 119.4607, "MEAN_ANOMALY": 10.7296, "EPHEMERIS_TYPE": 0, "CLASSIFICATION_TYPE": "U", "NORAD_CAT_ID": 30012, "ELEMENT_SET_NO": 999, "REV_AT_EPOCH": 95685, "BSTAR": 0.00027015356, "MEAN_MOTION_DOT": 2.89e-06, "MEAN_MOTION_DDOT": 0}, "tle": {"line1": "1 30012U 99025MM  25356.64260843  .00000289  00000+0  27015-3 0  9991", "line2": "2 30012  99.4628  49.9723 0137228 119.4607  10.7296 13.85772240956858"}}, "geometry": {"type": "Point", "coordinates": [52.29107519529128, -9.182283209577026]}}]}